[{"OBJECT_NAME":"NORSAT 1","OBJECT_ID":"2017-042B","EPOCH":"2026-03-09T23:10:56.235360","MEAN_MOTION":15.12717443,"ECCENTRICITY":0.00081298,"INCLINATION":97.4352,"RA_OF_ASC_NODE":239.0334,"ARG_OF_PERICENTER":71.2425,"MEAN_ANOMALY":288.9687,"EPHEMERIS_TYPE":0,"CLASSIFICATION_TYPE":"U","NORAD_CAT_ID":42826,"ELEMENT_SET_NO":999,"REV_AT_EPOCH":47222,"BSTAR":0.00054334012,"MEAN_MOTION_DOT":9.465e-5,"MEAN_MOTION_DDOT":0},{"OBJECT_NAME":"STARLINK-5411","OBJECT_ID":"2022-177AX","EPOCH":"2026-03-09T22:00:01.999584","MEAN_MOTION":15.08560736,"ECCENTRICITY":0.00012422,"INCLINATION":43.0006,"RA_OF_ASC_NODE":119.0286,"ARG_OF_PERICENTER":246.312,"MEAN_ANOMALY":347.346,"EPHEMERIS_TYPE":0,"CLASSIFICATION_TYPE":"U","NORAD_CAT_ID":54865,"ELEMENT_SET_NO":999,"REV_AT_EPOCH":567,"BSTAR":0.0034707185,"MEAN_MOTION_DOT":0.00055363,"MEAN_MOTION_DDOT":0}]
